[{"OBJECT_NAME":"STARLINK-5634","OBJECT_ID":"2023-014BA","EPOCH":"2026-03-09T19:14:07.061568","MEAN_MOTION":14.98332651,"ECCENTRICITY":0.00034121,"INCLINATION":69.9994,"RA_OF_ASC_NODE":104.2513,"ARG_OF_PERICENTER":269.9293,"MEAN_ANOMALY":90.1475,"EPHEMERIS_TYPE":0,"CLASSIFICATION_TYPE":"U","NORAD_CAT_ID":55439,"ELEMENT_SET_NO":999,"REV_AT_EPOCH":17108,"BSTAR":4.6140367e-5,"MEAN_MOTION_DOT":4.58e-6,"MEAN_MOTION_DDOT":0},{"OBJECT_NAME":"SITRO-AIS 24","OBJECT_ID":"2024-199G","EPOCH":"2026-03-09T22:55:13.311552","MEAN_MOTION":14.95574575,"ECCENTRICITY":0.00134035,"INCLINATION":97.3325,"RA_OF_ASC_NODE":273.3822,"ARG_OF_PERICENTER":42.6191,"MEAN_ANOMALY":317.6069,"EPHEMERIS_TYPE":0,"CLASSIFICATION_TYPE":"U","NORAD_CAT_ID":61741,"ELEMENT_SET_NO":999,"REV_AT_EPOCH":11705,"BSTAR":0.00037285708,"MEAN_MOTION_DOT":4.091e-5,"MEAN_MOTION_DDOT":0}]
